IRIDIUM 921             
1 24873U 97034E   24208.61264554  .00037406  00000+0  86743-3 0  9996
2 24873  86.3776 268.5523 0006017 106.3314 253.8603 15.42229067481251
IRIDIUM 26              
1 24903U 97043A   24208.40885937  .00000526  00000+0  17292-3 0  9997
2 24903  86.3931 247.2953 0002485  92.8241 267.3240 14.36450762409967
IRIDIUM 22              
1 24907U 97043E   24208.70403381  .00000515  00000+0  17297-3 0  9996
2 24907  86.3934 250.4403 0002244  92.4746 267.6707 14.35337883410060
DUMMY MASS 1            
1 24925U 97048A   24208.57935179  .00000694  00000+0  75689-4 0  9999
2 24925  86.3341 285.7876 0005586 201.6640 158.4349 14.86303956456751
DUMMY MASS 2            
1 24926U 97048B   24208.28570720  .00000728  00000+0  80074-4 0  9997
2 24926  86.3342 287.4739 0005913 218.7695 141.3106 14.86061147456499
IRIDIUM 29              
1 24944U 97051A   24208.34607067  .00000603  00000+0  20172-3 0  9997
2 24944  86.3943 280.4869 0002018  97.6371 262.5055 14.35790968406501
IRIDIUM 33              
1 24946U 97051C   24208.54928575  .00000427  00000+0  14456-3 0  9993
2 24946  86.3857 279.6505 0009873  68.2463 291.9783 14.34429762406050
IRIDIUM 28              
1 24948U 97051E   24208.32398744  .00000652  00000+0  21457-3 0  9999
2 24948  86.3947 278.1961 0002664  90.8370 269.3133 14.36746198407046
